{
  "type": "FeatureCollection",
  "features": [
    {
      "type": "Feature",
      "properties": {
        "norad_id": 31307,
        "name": "GALAXY 17 (G-17)",
        "group": "intelsat",
        "lat": 0.6019615180027565,
        "lon": -112.13204177977826,
        "alt_km": 35760.19874441171,
        "timestamp": "2025-12-09T16:56:36.247879+00:00",
        "meta_object_name": "GALAXY 17 (G-17)",
        "meta_object_id": "2007-016B",
        "meta_epoch": "2025-12-09T12:27:47.151072",
        "meta_mean_motion": 1.00272575,
        "meta_eccentricity": 0.0006058,
        "meta_inclination": 2.4919,
        "meta_ra_of_asc_node": 82.3182,
        "meta_arg_of_pericenter": 162.3451,
        "meta_mean_anomaly": 295.7984,
        "meta_ephemeris_type": 0,
        "meta_classification_type": "U",
        "meta_norad_cat_id": 31307,
        "meta_element_set_no": 999,
        "meta_rev_at_epoch": 6790,
        "meta_bstar": 0,
        "meta_mean_motion_dot": -2.04e-06,
        "meta_mean_motion_ddot": 0,
        "tle_line1": "1 31307U 07016B   25343.51929573 -.00000204  00000+0  00000+0 0  9991",
        "tle_line2": "2 31307   2.4919  82.3182 0006058 162.3451 295.7984  1.00272575 67901"
      },
      "geometry": {
        "type": "Point",
        "coordinates": [
          -112.13204177977826,
          0.6019615180027565
        ]
      }
    },
    {
      "type": "Feature",
      "properties": {
        "norad_id": 31862,
        "name": "DIRECTV 10",
        "group": "intelsat",
        "lat": 0.005959113039531452,
        "lon": -129.93766047137322,
        "alt_km": 35782.76416223112,
        "timestamp": "2025-12-09T16:56:36.247892+00:00",
        "meta_object_name": "DIRECTV 10",
        "meta_object_id": "2007-032A",
        "meta_epoch": "2025-12-09T10:42:05.907744",
        "meta_mean_motion": 1.0027488,
        "meta_eccentricity": 5.82e-05,
        "meta_inclination": 0.0139,
        "meta_ra_of_asc_node": 161.9453,
        "meta_arg_of_pericenter": 71.8294,
        "meta_mean_anomaly": 262.4057,
        "meta_ephemeris_type": 0,
        "meta_classification_type": "U",
        "meta_norad_cat_id": 31862,
        "meta_element_set_no": 999,
        "meta_rev_at_epoch": 4369,
        "meta_bstar": 0,
        "meta_mean_motion_dot": -1.01e-06,
        "meta_mean_motion_ddot": 0,
        "tle_line1": "1 31862U 07032A   25343.44590171 -.00000101  00000+0  00000+0 0  9991",
        "tle_line2": "2 31862   0.0139 161.9453 0000582  71.8294 262.4057  1.00274880 43698"
      },
      "geometry": {
        "type": "Point",
        "coordinates": [
          -129.93766047137322,
          0.005959113039531452
        ]
      }
    },
    {
      "type": "Feature",
      "properties": {
        "norad_id": 32253,
        "name": "INTELSAT 11 (IS-11)",
        "group": "intelsat",
        "lat": 2.310575678281315,
        "lon": -148.13349349601597,
        "alt_km": 36100.17778396015,
        "timestamp": "2025-12-09T16:56:36.247904+00:00",
        "meta_object_name": "INTELSAT 11 (IS-11)",
        "meta_object_id": "2007-044B",
        "meta_epoch": "2025-12-09T12:12:30.435840",
        "meta_mean_motion": 0.99047745,
        "meta_eccentricity": 0.0009106,
        "meta_inclination": 3.0719,
        "meta_ra_of_asc_node": 81.01,
        "meta_arg_of_pericenter": 164.5646,
        "meta_mean_anomaly": 255.9589,
        "meta_ephemeris_type": 0,
        "meta_classification_type": "U",
        "meta_norad_cat_id": 32253,
        "meta_element_set_no": 999,
        "meta_rev_at_epoch": 6657,
        "meta_bstar": 0,
        "meta_mean_motion_dot": 7.3e-07,
        "meta_mean_motion_ddot": 0,
        "tle_line1": "1 32253U 07044B   25343.50868560  .00000073  00000+0  00000+0 0  9993",
        "tle_line2": "2 32253   3.0719  81.0100 0009106 164.5646 255.9589  0.99047745 66577"
      },
      "geometry": {
        "type": "Point",
        "coordinates": [
          -148.13349349601597,
          2.310575678281315
        ]
      }
    },
    {
      "type": "Feature",
      "properties": {
        "norad_id": 32388,
        "name": "HORIZONS-2",
        "group": "intelsat",
        "lat": 0.12464808794433846,
        "lon": -100.94767833843015,
        "alt_km": 35765.577604834245,
        "timestamp": "2025-12-09T16:56:36.247916+00:00",
        "meta_object_name": "HORIZONS-2",
        "meta_object_id": "2007-063B",
        "meta_epoch": "2025-12-09T12:34:03.796320",
        "meta_mean_motion": 1.00270503,
        "meta_eccentricity": 0.000502,
        "meta_inclination": 2.1132,
        "meta_ra_of_asc_node": 82.9918,
        "meta_arg_of_pericenter": 187.0359,
        "meta_mean_anomaly": 283.219,
        "meta_ephemeris_type": 0,
        "meta_classification_type": "U",
        "meta_norad_cat_id": 32388,
        "meta_element_set_no": 999,
        "meta_rev_at_epoch": 6591,
        "meta_bstar": 0,
        "meta_mean_motion_dot": -2.51e-06,
        "meta_mean_motion_ddot": 0,
        "tle_line1": "1 32388U 07063B   25343.52365505 -.00000251  00000+0  00000+0 0  9995",
        "tle_line2": "2 32388   2.1132  82.9918 0005020 187.0359 283.2190  1.00270503 65916"
      },
      "geometry": {
        "type": "Point",
        "coordinates": [
          -100.94767833843015,
          0.12464808794433846
        ]
      }
    },
    {
      "type": "Feature",
      "properties": {
        "norad_id": 32729,
        "name": "DIRECTV 11",
        "group": "intelsat",
        "lat": -0.011377098194242045,
        "lon": -126.35105908489541,
        "alt_km": 35784.53916050401,
        "timestamp": "2025-12-09T16:56:36.247928+00:00",
        "meta_object_name": "DIRECTV 11",
        "meta_object_id": "2008-013A",
        "meta_epoch": "2025-12-09T10:14:01.461984",
        "meta_mean_motion": 1.0027202,
        "meta_eccentricity": 4.14e-05,
        "meta_inclination": 0.0295,
        "meta_ra_of_asc_node": 191.9729,
        "meta_arg_of_pericenter": 10.0555,
        "meta_mean_anomaly": 290.7006,
        "meta_ephemeris_type": 0,
        "meta_classification_type": "U",
        "meta_norad_cat_id": 32729,
        "meta_element_set_no": 999,
        "meta_rev_at_epoch": 4369,
        "meta_bstar": 0,
        "meta_mean_motion_dot": -1.23e-06,
        "meta_mean_motion_ddot": 0,
        "tle_line1": "1 32729U 08013A   25343.42640581 -.00000123  00000+0  00000+0 0  9997",
        "tle_line2": "2 32729   0.0295 191.9729 0000414  10.0555 290.7006  1.00272020 43694"
      },
      "geometry": {
        "type": "Point",
        "coordinates": [
          -126.35105908489541,
          -0.011377098194242045
        ]
      }
    },
    {
      "type": "Feature",
      "properties": {
        "norad_id": 32951,
        "name": "GALAXY 18 (G-18)",
        "group": "intelsat",
        "lat": -0.024559097782789762,
        "lon": -150.19598359212378,
        "alt_km": 35777.48311436692,
        "timestamp": "2025-12-09T16:56:36.247940+00:00",
        "meta_object_name": "GALAXY 18 (G-18)",
        "meta_object_id": "2008-024A",
        "meta_epoch": "2025-12-09T12:07:22.423296",
        "meta_mean_motion": 1.002726,
        "meta_eccentricity": 0.0003171,
        "meta_inclination": 0.012,
        "meta_ra_of_asc_node": 294.9062,
        "meta_arg_of_pericenter": 326.3932,
        "meta_mean_anomaly": 236.0303,
        "meta_ephemeris_type": 0,
        "meta_classification_type": "U",
        "meta_norad_cat_id": 32951,
        "meta_element_set_no": 999,
        "meta_rev_at_epoch": 4395,
        "meta_bstar": 0,
        "meta_mean_motion_dot": 2.7e-07,
        "meta_mean_motion_ddot": 0,
        "tle_line1": "1 32951U 08024A   25343.50512064  .00000027  00000+0  00000+0 0  9991",
        "tle_line2": "2 32951   0.0120 294.9062 0003171 326.3932 236.0303  1.00272600 43953"
      },
      "geometry": {
        "type": "Point",
        "coordinates": [
          -150.19598359212378,
          -0.024559097782789762
        ]
      }
    },
    {
      "type": "Feature",
      "properties": {
        "norad_id": 33153,
        "name": "INTELSAT 25 (IS-25)",
        "group": "intelsat",
        "lat": -1.4025508530916655,
        "lon": -58.6404638255457,
        "alt_km": 35767.81254419296,
        "timestamp": "2025-12-09T16:56:36.247952+00:00",
        "meta_object_name": "INTELSAT 25 (IS-25)",
        "meta_object_id": "2008-034A",
        "meta_epoch": "2025-12-09T09:59:58.218720",
        "meta_mean_motion": 1.00270316,
        "meta_eccentricity": 0.0005395,
        "meta_inclination": 2.2193,
        "meta_ra_of_asc_node": 82.6826,
        "meta_arg_of_pericenter": 184.5292,
        "meta_mean_anomaly": 289.6916,
        "meta_ephemeris_type": 0,
        "meta_classification_type": "U",
        "meta_norad_cat_id": 33153,
        "meta_element_set_no": 999,
        "meta_rev_at_epoch": 6379,
        "meta_bstar": 0,
        "meta_mean_motion_dot": -2.22e-06,
        "meta_mean_motion_ddot": 0,
        "tle_line1": "1 33153U 08034A   25343.41664605 -.00000222  00000+0  00000+0 0  9994",
        "tle_line2": "2 33153   2.2193  82.6826 0005395 184.5292 289.6916  1.00270316 63795"
      },
      "geometry": {
        "type": "Point",
        "coordinates": [
          -58.6404638255457,
          -1.4025508530916655
        ]
      }
    }
  ]
}